NORAD_CAT_ID,OBJECT_NAME,OBJECT_TYPE,EPOCH,MEAN_MOTION,ECCENTRICITY,INCLINATION,RA_OF_ASC_NODE,ARG_OF_PERICENTER,MEAN_ANOMALY,BSTAR,MEAN_MOTION_DOT,MEAN_MOTION_DDOT,TLE_LINE0,TLE_LINE1,TLE_LINE2,SEMIMAJOR_AXIS,PERIOD,APOGEE,PERIGEE,DECAYED
49408.0,STARLINK-3151,PAYLOAD,2021-11-17 16:00:00,15.95185642,0.0062752,53.2175,113.6136,56.5487,112.2057,-0.0014981,-0.00742136,0.00018473,0 STARLINK-3151,1 49408U 21104A   21321.66667824 -.00742136  18473-3 -14981-2 0  9993,2 49408  53.2175 113.6136 0062752  56.5487 112.2057 15.95185642  1935,6665.934,90.272,329.629,245.969,0.0
49408.0,STARLINK-3151,PAYLOAD,2021-11-18 06:00:00,15.94263048,0.0058111,53.2173,110.6332,56.7377,222.9384,-0.0020172,-0.00918025,0.00026813,0 STARLINK-3151,1 49408U 21104A   21322.25001157 -.00918025  26813-3 -20172-2 0  9998,2 49408  53.2173 110.6332 0058111  56.7377 222.9384 15.94263048  2021,6668.505999999999,90.324,329.122,251.61900000000003,0.0
49408.0,STARLINK-3151,PAYLOAD,2021-11-18 14:00:01,15.93655017,0.0055854999999999,53.2174,108.9335,57.0566,336.4974,-0.0020082,-0.00871684,0.00024275,0 STARLINK-3151,1 49408U 21104A   21322.58334491 -.00871684  24275-3 -20082-2 0  9993,2 49408  53.2174 108.9335 0055855  57.0566 336.4974 15.93655017  2072,6670.2019999999975,90.358,329.3230000000001,254.81,0.0
49408.0,STARLINK-3151,PAYLOAD,2021-11-18 22:00:00,15.93069384,0.0053003999999999,53.2171,107.2351,58.8195,87.9006,-0.0021107,-0.00872786,0.00024189,0 STARLINK-3151,1 49408U 21104A   21322.91667824 -.00872786  24189-3 -21107-2 0  9996,2 49408  53.2171 107.2351 0053004  58.8195  87.9006 15.93069384  2126,6671.8359999999975,90.392,329.065,258.338,0.0
49408.0,STARLINK-3151,PAYLOAD,2021-11-19 06:00:02,15.9250361,0.005009,53.2175,105.5348,60.2056,199.0377,-0.0023169,-0.0091439,0.00026162,0 STARLINK-3151,1 49408U 21104A   21323.25002315 -.00914390  26162-3 -23169-2 0  9993,2 49408  53.2175 105.5348 0050090  60.2056 199.0377 15.92503610  2188,6673.416,90.424,328.709,261.85400000000004,0.0
49408.0,STARLINK-3151,PAYLOAD,2021-11-19 14:00:01,15.91904823,0.0047697,53.2176,103.8399,59.86600000000001,311.0736,-0.0023493,-0.0088736,0.00024639,0 STARLINK-3151,1 49408U 21104A   21323.58334491 -.00887360  24639-3 -23493-2 0  9995,2 49408  53.2176 103.8399 0047697  59.8660 311.0736 15.91904823  2231,6675.09,90.458,328.793,265.117,0.0
49408.0,STARLINK-3151,PAYLOAD,2021-11-19 22:00:00,15.91125805,0.0045434,53.2168,102.145,62.5667,59.5352,-0.0016578,-0.00596379,0.00012059,0 STARLINK-3151,1 49408U 21104A   21323.91667824 -.00596379  12059-3 -16578-2 0  9997,2 49408  53.2168 102.1450 0045434  62.5667  59.5352 15.91125805  1644,6677.268,90.502,329.471,268.796,0.0
49408.0,STARLINK-3151,PAYLOAD,2021-11-20 06:00:00,15.90745733,0.0042748,53.2172,100.45,62.3163,170.0249,-0.0026321,-0.00914182,0.00025708,0 STARLINK-3151,1 49408U 21104A   21324.25001157 -.00914182  25708-3 -26321-2 0  9994,2 49408  53.2172 100.4500 0042748  62.3163 170.0249 15.90745733  2349,6678.331999999999,90.524,328.745,271.648,0.0
49408.0,STARLINK-3151,PAYLOAD,2021-11-20 14:00:01,15.90155304,0.0040403,53.2175,98.7594,62.2136,279.7748,-0.0027118,-0.0090477,0.0002509,0 STARLINK-3151,1 49408U 21104A   21324.58334491 -.00904770  25090-3 -27118-2 0  9991,2 49408  53.2175  98.7594 0040403  62.2136 279.7748 15.90155304  2394,6679.985,90.557,328.839,274.861,0.0
49408.0,STARLINK-3151,PAYLOAD,2021-11-20 22:00:00,15.89552543,0.0037437,53.2172,97.0692,63.9136,27.0228,-0.0027164,-0.00869288,0.00023211,0 STARLINK-3151,1 49408U 21104A   21324.91667824 -.00869288  23211-3 -27164-2 0  9995,2 49408  53.2172  97.0692 0037437  63.9136  27.0228 15.89552543  2440,6681.6730000000025,90.592,328.55300000000005,278.524,0.0
49408.0,STARLINK-3151,PAYLOAD,2021-11-21 06:00:00,15.88982687,0.0035193,53.2171,95.3781,64.5719,134.5985,-0.0029279,-0.00902799,0.00024716,0 STARLINK-3151,1 49408U 21104A   21325.25001157 -.00902799  24716-3 -29279-2 0  9999,2 49408  53.2171  95.3781 0035193  64.5719 134.5985 15.88982687  2506,6683.271,90.624,328.656,281.615,0.0
49408.0,STARLINK-3151,PAYLOAD,2021-11-21 14:00:01,15.88256164,0.0032696,53.2174,93.6912,66.8796,239.8981,-0.0023171,-0.00684849,0.00014969,0 STARLINK-3151,1 49408U 21104A   21325.58334491 -.00684849  14969-3 -23171-2 0  9992,2 49408  53.2174  93.6912 0032696  66.8796 239.8981 15.88256164  2555,6685.309,90.665,329.032,285.316,0.0
49408.0,STARLINK-3151,PAYLOAD,2021-11-21 22:00:00,15.87799815,0.003005,53.2171,92.0062,66.1676,347.37,-0.0030729,-0.00879208,0.00023304,0 STARLINK-3151,1 49408U 21104A   21325.91667824 -.00879208  23304-3 -30729-2 0  9993,2 49408  53.2171  92.0062 0030050  66.1676 347.3700 15.87799815  2607,6686.59,90.692,328.548,288.362,0.0
49408.0,STARLINK-3151,PAYLOAD,2021-11-22 04:00:00,15.87358614,0.0028055,53.2175,90.7408,66.5904,336.6097,-0.0031478,-0.0087651,0.00023081,0 STARLINK-3151,1 49408U 21104A   21326.16667824 -.00876510  23081-3 -31478-2 0  9998,2 49408  53.2175  90.7408 0028055  66.5904 336.6097 15.87358614  2642,6687.829000000002,90.717,328.456,290.931,0.0
49408.0,STARLINK-3151,PAYLOAD,2021-11-22 14:00:01,15.86647844,0.0024777,53.2175,88.6379,66.6191,198.4603,-0.0034559,-0.00921605,0.00025103,0 STARLINK-3151,1 49408U 21104A   21326.58334491 -.00921605  25103-3 -34559-2 0  9991,2 49408  53.2175  88.6379 0024777  66.6191 198.4603 15.86647844  2070,6689.826,90.757,328.266,295.115,0.0
49408.0,STARLINK-3151,PAYLOAD,2021-11-22 22:00:00,15.86050956,0.0022498,53.2171,86.9561,67.8716,301.9294,-0.0034807,-0.00897445,0.00023798,0 STARLINK-3151,1 49408U 21104A   21326.91667824 -.00897445  23798-3 -34807-2 0  9995,2 49408  53.2171  86.9561 0022498  67.8716 301.9294 15.86050956  2769,6691.504,90.792,328.4240000000001,298.315,0.0
49408.0,STARLINK-3151,PAYLOAD,2021-11-23 14:00:01,15.84835828,0.0017734,53.2176,83.5961,70.3373,146.8122,-0.0034574,-0.00768157,0.0,0 STARLINK-3151,1 49408U 21104A   21327.58334491 -.00768157  00000-0 -34574-2 0  9996,2 49408  53.2176  83.5961 0017734  70.3373 146.8122 15.84835828  2231,6694.924,90.861,328.662,304.916,0.0
49408.0,STARLINK-3151,PAYLOAD,2021-11-23 22:00:00,15.8430332,0.001504,53.2173,81.9189,69.3847,250.3431,-0.003924,-0.00839263,0.0,0 STARLINK-3151,1 49408U 21104A   21327.91667824 -.00839263  00000-0 -39240-2 0  9994,2 49408  53.2173  81.9189 0015040  69.3847 250.3431 15.84303320  2280,6696.424,90.892,328.361,308.218,0.0
49408.0,STARLINK-3151,PAYLOAD,2021-11-24 06:00:02,15.83698549,0.0013049,53.2174,80.241,67.8665,353.837,-0.0038798,-0.00806564,0.0,0 STARLINK-3151,1 49408U 21104A   21328.25002315 -.00806564  00000-0 -38798-2 0  9995,2 49408  53.2174  80.2410 0013049  67.8665 353.8370 15.83698549  2974,6698.129,90.926,328.7340000000001,311.253,0.0
49408.0,STARLINK-3151,PAYLOAD,2021-11-24 12:00:00,15.8326208,0.0010533,53.2175,78.9865,65.4772,342.1226,-0.0039943,-0.00810308,0.0,0 STARLINK-3151,1 49408U 21104A   21328.50001157 -.00810308  00000-0 -39943-2 0  9990,2 49408  53.2175  78.9865 0010533  65.4772 342.1226 15.83262080  3015,6699.36,90.951,328.281,314.168,0.0
49408.0,STARLINK-3151,PAYLOAD,2021-11-24 14:00:01,15.83118427,0.0010111,53.2173,78.5685,64.9625,97.8694,-0.0040493,-0.00815032,0.0,0 STARLINK-3151,1 49408U 21104A   21328.58334491 -.00815032  00000-0 -40493-2 0  9999,2 49408  53.2173  78.5685 0010111  64.9625  97.8694 15.83118427  2390,6699.765,90.96,328.404,314.856,0.0
49408.0,STARLINK-3151,PAYLOAD,2021-11-24 22:00:00,15.82549028,0.0007852,53.2172,76.8949,67.1965,196.1238,-0.004328,-0.00843209,0.0,0 STARLINK-3151,1 49408U 21104A   21328.91667824 -.00843209  00000-0 -43280-2 0  9999,2 49408  53.2172  76.8949 0007852  67.1965 196.1238 15.82549028  2440,6701.371999999999,90.992,328.499,317.975,0.0
49408.0,STARLINK-3151,PAYLOAD,2021-11-25 06:00:00,15.81950563,0.0005893,53.2174,75.2215,63.3487,299.7668,-0.0043333999999999,-0.00821429,0.0,0 STARLINK-3151,1 49408U 21104A   21329.25001157 -.00821429  00000-0 -43334-2 0  9998,2 49408  53.2174  75.2215 0005893  63.3487 299.7668 15.81950563  3134,6703.062,91.027,328.8769999999999,320.9770000000001,0.0
49408.0,STARLINK-3151,PAYLOAD,2021-11-25 14:00:01,15.81357388,0.0003693,53.2174,73.5533,47.8204,54.3816,-0.0043754,-0.00806806,0.0,0 STARLINK-3151,1 49408U 21104A   21329.58334491 -.00806806  00000-0 -43754-2 0  9992,2 49408  53.2174  73.5533 0003693  47.8204  54.3816 15.81357388  2559,6704.738,91.061,329.079,324.127,0.0
49408.0,STARLINK-3151,PAYLOAD,2021-11-25 20:00:01,15.80922322,0.0002373,53.2172,72.3014,34.9849,51.06800000000001,-0.0045131,-0.00814202,0.0,0 STARLINK-3151,1 49408U 21104A   21329.83334491 -.00814202  00000-0 -45131-2 0  9990,2 49408  53.2172  72.3014 0002373  34.9849  51.0680 15.80922322  2596,6705.968000000003,91.086,329.4240000000001,326.242,0.0
49408.0,STARLINK-3151,PAYLOAD,2021-11-26 04:00:00,15.80340003,0.0002185,53.2172,70.6317,22.2362,161.6701,-0.0046736999999999,-0.00820059,0.0,0 STARLINK-3151,1 49408U 21104A   21330.16667824 -.00820059  00000-0 -46737-2 0  9997,2 49408  53.2172  70.6317 0002185  22.2362 161.6701 15.80340003  3283,6707.615,91.12,330.946,328.015,0.0
49408.0,STARLINK-3151,PAYLOAD,2021-11-26 14:00:01,15.79609705,0.0002374,53.2173,68.5511,15.4336,19.8633,-0.0048556999999999,-0.00823523,0.0,0 STARLINK-3151,1 49408U 21104A   21330.58335648 -.00823523  00000-0 -48557-2 0  9990,2 49408  53.2173  68.5511 0002374  15.4336  19.8633 15.79609705  2711,6709.683000000001,91.162,333.141,329.955,0.0
49408.0,STARLINK-3151,PAYLOAD,2021-11-26 22:00:00,15.79022562,0.0001795,53.2173,66.8858,28.9495,102.5521,-0.0049745,-0.00821288,0.0,0 STARLINK-3151,1 49408U 21104A   21330.91667824 -.00821288  00000-0 -49745-2 0  9997,2 49408  53.2173  66.8858 0001795  28.9495 102.5521 15.79022562  2768,6711.346,91.196,334.416,332.006,0.0
49408.0,STARLINK-3151,PAYLOAD,2021-11-27 06:00:02,15.78436438,0.0001965,53.2175,65.2212,27.7188,199.4143,-0.0050972,-0.00819608,0.0,0 STARLINK-3151,1 49408U 21104A   21331.25002315 -.00819608  00000-0 -50972-2 0  9990,2 49408  53.2175  65.2212 0001965  27.7188 199.4143 15.78436438  3454,6713.007,91.23,336.191,333.55300000000005,0.0
